ONEWEB-0446             
1 51640U 22012U   24176.52332971  .00000240  00000+0  65162-3 0  9993
2 51640  87.8943 179.9706 0001695  84.4986 275.6334 13.10376385114683
ONEWEB-0448             
1 51641U 22012V   24176.52830886  .00000438  00000+0  12174-2 0  9995
2 51641  87.8942 179.9704 0002180  88.0781 272.0596 13.10377330114653
ONEWEB-0449             
1 51642U 22012W   24176.53331826  .00000566  00000+0  15838-2 0  9999
2 51642  87.8936 179.9643 0001997  97.6993 262.4361 13.10375690114666
ONEWEB-0451             
1 51643U 22012X   24176.44855448  .00003932  00000+0  10106-1 0  9993
2 51643  87.9166 149.7337 0002217  89.1027 271.0359 13.17538942118483
ONEWEB-0452             
1 51644U 22012Y   24176.44695128  .00002709  00000+0  69549-2 0  9998
2 51644  87.9170 149.7740 0002266  93.2126 266.9264 13.17534464118491
ONEWEB-0456             
1 51646U 22012AA  24176.54325876  .00000641  00000+0  17994-2 0  9991
2 51646  87.8929 179.9340 0002089  79.3450 280.7913 13.10372230114702
ONEWEB-0457             
1 51647U 22012AB  24176.51998596  .00000054  00000+0  11926-3 0  9992
2 51647  87.8944 179.9613 0001794  93.3749 266.7583 13.10374309114708
ONEWEB-0458             
1 51648U 22012AC  24176.54160006  .00000652  00000+0  18309-2 0  9998
2 51648  87.8938 179.9726 0002159  88.2416 271.8959 13.10372666114660
